start=new Date('2022-09-14T00:00:00.000Z').valueOf();
sats=[{"OBJECT_ID":"2020-070AC","TLE_LINE1":"1 46558U 20070AC  22256.86578968  .00000974  00000-0  84309-4 0  9999","SITE":"AFETR","NORAD_CAT_ID":"46558","MEAN_MOTION_DOT":"0.00000974","APOAPSIS":"548.262","COUNTRY_CODE":"US","TLE_LINE2":"2 46558  53.0571 115.5491 0001497  76.0917 284.0238 15.06396045107844","EPOCH":"2022-09-13T20:46:44.228352","MEAN_MOTION_DDOT":"0.0000000000000","CENTER_NAME":"EARTH","EPHEMERIS_TYPE":"0","GP_ID":"212533054","RA_OF_ASC_NODE":"115.5491","MEAN_ANOMALY":"284.0238","CLASSIFICATION_TYPE":"U","INCLINATION":"53.0571","LAUNCH_DATE":"2020-10-06","PERIOD":"95.592","FILE":"3573088","OBJECT_TYPE":"PAYLOAD","ECCENTRICITY":"0.00014970","ELEMENT_SET_NO":"999","ARG_OF_PERICENTER":"76.0917","REV_AT_EPOCH":"10784","PERIAPSIS":"546.189","MEAN_MOTION":"15.06396045","SEMIMAJOR_AXIS":"6925.361","REF_FRAME":"TEME","BSTAR":"0.00008430900000","OBJECT_NAME":"STARLINK-1680","TIME_SYSTEM":"UTC","DECAY_DATE":null,"MEAN_ELEMENT_THEORY":"SGP4","RCS_SIZE":"LARGE"},{"DECAY_DATE":null,"TIME_SYSTEM":"UTC","SEMIMAJOR_AXIS":"6925.355","BSTAR":"0.00011171000000","OBJECT_NAME":"STARLINK-1681","REF_FRAME":"TEME","MEAN_MOTION":"15.06397830","PERIAPSIS":"546.273","REV_AT_EPOCH":"10807","ECCENTRICITY":"0.00013680","ELEMENT_SET_NO":"999","ARG_OF_PERICENTER":"75.8952","RCS_SIZE":"LARGE","MEAN_ELEMENT_THEORY":"SGP4","CLASSIFICATION_TYPE":"U","MEAN_ANOMALY":"284.2189","RA_OF_ASC_NODE":"100.5994","FILE":"3573088","OBJECT_TYPE":"PAYLOAD","PERIOD":"95.592","LAUNCH_DATE":"2020-10-06","INCLINATION":"53.0562","TLE_LINE2":"2 46559  53.0562 100.5994 0001368  75.8952 284.2189 15.06397830108076","GP_ID":"212531807","EPHEMERIS_TYPE":"0","CENTER_NAME":"EARTH","EPOCH":"2022-09-13T20:28:47.115840","MEAN_MOTION_DDOT":"0.0000000000000","TLE_LINE1":"1 46559U 20070AD  22256.85332310  .00001383  00000-0  11171-3 0  9999","SITE":"AFETR","OBJECT_ID":"2020-070AD","COUNTRY_CODE":"US","MEAN_MOTION_DOT":"0.00001383","APOAPSIS":"548.168","NORAD_CAT_ID":"46559"},{"TLE_LINE1":"1 46560U 20070AE  22256.34975145  .00001116  00000-0  93785-4 0  9990","SITE":"AFETR","OBJECT_ID":"2020-070AE","COUNTRY_CODE":"US","NORAD_CAT_ID":"46560","APOAPSIS":"548.171","MEAN_MOTION_DOT":"0.00001116","TLE_LINE2":"2 46560  53.0561 117.8658 0001404  67.7527 292.3611 15.06404987107806","EPHEMERIS_TYPE":"0","GP_ID":"212494376","CENTER_NAME":"EARTH","EPOCH":"2022-09-13T08:23:38.525280","MEAN_MOTION_DDOT":"0.0000000000000","MEAN_ANOMALY":"292.3611","CLASSIFICATION_TYPE":"U","RA_OF_ASC_NODE":"117.8658","PERIOD":"95.592","FILE":"3572149","OBJECT_TYPE":"PAYLOAD","INCLINATION":"53.0561","LAUNCH_DATE":"2020-10-06","MEAN_MOTION":"15.06404987","TIME_SYSTEM":"UTC","DECAY_DATE":null,"SEMIMAJOR_AXIS":"6925.333","BSTAR":"0.00009378500000","REF_FRAME":"TEME","OBJECT_NAME":"STARLINK-1706","REV_AT_EPOCH":"10780","ELEMENT_SET_NO":"999","ARG_OF_PERICENTER":"67.7527","ECCENTRICITY":"0.00014040","PERIAPSIS":"546.226","RCS_SIZE":"LARGE","MEAN_ELEMENT_THEORY":"SGP4"},{"TIME_SYSTEM":"UTC","DECAY_DATE":null,"BSTAR":"0.00011918000000","SEMIMAJOR_AXIS":"6925.354","OBJECT_NAME":"STARLINK-1709","REF_FRAME":"TEME","MEAN_MOTION":"15.06398283","PERIAPSIS":"546.290","REV_AT_EPOCH":"10783","ELEMENT_SET_NO":"999","ARG_OF_PERICENTER":"74.9098","ECCENTRICITY":"0.00013410","RCS_SIZE":"LARGE","MEAN_ELEMENT_THEORY":"SGP4","CLASSIFICATION_TYPE":"U","MEAN_ANOMALY":"285.2039","RA_OF_ASC_NODE":"116.6123","OBJECT_TYPE":"PAYLOAD","FILE":"3573088","PERIOD":"95.592","LAUNCH_DATE":"2020-10-06","INCLINATION":"53.0522","TLE_LINE2":"2 46561  53.0522 116.6123 0001341  74.9098 285.2039 15.06398283107830","GP_ID":"212532807","EPHEMERIS_TYPE":"0","CENTER_NAME":"EARTH","EPOCH":"2022-09-13T15:10:59.515392","MEAN_MOTION_DDOT":"0.0000000000000","SITE":"AFETR","TLE_LINE1":"1 46561U 20070AF  22256.63263328  .00001494  00000-0  11918-3 0  9992","OBJECT_ID":"2020-070AF","COUNTRY_CODE":"US","APOAPSIS":"548.148","MEAN_MOTION_DOT":"0.00001494","NORAD_CAT_ID":"46561"},{"COUNTRY_CODE":"US","NORAD_CAT_ID":"46562","APOAPSIS":"548.212","MEAN_MOTION_DOT":"-0.00000712","SITE":"AFETR","TLE_LINE1":"1 46562U 20070AG  22256.63124290 -.00000712  00000-0 -28897-4 0  9996","OBJECT_ID":"2020-070AG","EPHEMERIS_TYPE":"0","GP_ID":"212466094","MEAN_MOTION_DDOT":"0.0000000000000","EPOCH":"2022-09-13T15:08:59.386560","CENTER_NAME":"EARTH","TLE_LINE2":"2 46562  53.0531 111.5836 0001420  83.4866 276.6284 15.06395080107605","PERIOD":"95.592","OBJECT_TYPE":"PAYLOAD","FILE":"3572052","INCLINATION":"53.0531","LAUNCH_DATE":"2020-10-06","MEAN_ANOMALY":"276.6284","CLASSIFICATION_TYPE":"U","RA_OF_ASC_NODE":"111.5836","RCS_SIZE":"LARGE","MEAN_ELEMENT_THEORY":"SGP4","MEAN_MOTION":"15.06395080","SEMIMAJOR_AXIS":"6925.364","BSTAR":"-0.00002889700000","REF_FRAME":"TEME","OBJECT_NAME":"STARLINK-1714","TIME_SYSTEM":"UTC","DECAY_DATE":null,"ELEMENT_SET_NO":"999","ECCENTRICITY":"0.00014200","ARG_OF_PERICENTER":"83.4866","REV_AT_EPOCH":"10760","PERIAPSIS":"546.245"},{"RA_OF_ASC_NODE":"111.6948","MEAN_ANOMALY":"297.5452","CLASSIFICATION_TYPE":"U","INCLINATION":"53.0529","LAUNCH_DATE":"2020-10-06","PERIOD":"95.592","FILE":"3573088","OBJECT_TYPE":"PAYLOAD","ARG_OF_PERICENTER":"62.5689","ELEMENT_SET_NO":"999","ECCENTRICITY":"0.00015020","REV_AT_EPOCH":"10790","PERIAPSIS":"546.173","MEAN_MOTION":"15.06400244","BSTAR":"0.00018740000000","SEMIMAJOR_AXIS":"6925.348","OBJECT_NAME":"STARLINK-1730","REF_FRAME":"TEME","TIME_SYSTEM":"UTC","DECAY_DATE":null,"MEAN_ELEMENT_THEORY":"SGP4","RCS_SIZE":"LARGE","OBJECT_ID":"2020-070AH","TLE_LINE1":"1 46563U 20070AH  22256.61376400  .00002511  00000-0  18740-3 0  9999","SITE":"AFETR","NORAD_CAT_ID":"46563","APOAPSIS":"548.253","MEAN_MOTION_DOT":"0.00002511","COUNTRY_CODE":"US","TLE_LINE2":"2 46563  53.0529 111.6948 0001502  62.5689 297.5452 15.06400244107901","EPOCH":"2022-09-13T14:43:49.209600","MEAN_MOTION_DDOT":"0.0000000000000","CENTER_NAME":"EARTH","EPHEMERIS_TYPE":"0","GP_ID":"212532307"},{"TLE_LINE2":"2 46564  53.0529 110.5595 0001425  89.8381 270.2771 15.06386276107947","CENTER_NAME":"EARTH","MEAN_MOTION_DDOT":"0.0000000000000","EPOCH":"2022-09-13T20:39:27.492768","GP_ID":"212532058","EPHEMERIS_TYPE":"0","OBJECT_ID":"2020-070AJ","SITE":"AFETR","TLE_LINE1":"1 46564U 20070AJ  22256.86073487 -.00001750  00000-0 -98663-4 0  9995","MEAN_MOTION_DOT":"-0.00001750","APOAPSIS":"548.242","NORAD_CAT_ID":"46564","COUNTRY_CODE":"US","PERIAPSIS":"546.269","REV_AT_EPOCH":"10794","ELEMENT_SET_NO":"999","ECCENTRICITY":"0.00014250","ARG_OF_PERICENTER":"89.8381","DECAY_DATE":null,"TIME_SYSTEM":"UTC","OBJECT_NAME":"STARLINK-1733","SEMIMAJOR_AXIS":"6925.391","BSTAR":"-0.00009866300000","REF_FRAME":"TEME","MEAN_MOTION":"15.06386276","MEAN_ELEMENT_THEORY":"SGP4","RCS_SIZE":"LARGE","RA_OF_ASC_NODE":"110.5595","CLASSIFICATION_TYPE":"U","MEAN_ANOMALY":"270.2771","LAUNCH_DATE":"2020-10-06","INCLINATION":"53.0529","OBJECT_TYPE":"PAYLOAD","FILE":"3573088","PERIOD":"95.593"},{"ARG_OF_PERICENTER":"82.4512","ELEMENT_SET_NO":"999","ECCENTRICITY":"0.00015000","REV_AT_EPOCH":"10794","PERIAPSIS":"546.176","MEAN_MOTION":"15.06399749","REF_FRAME":"TEME","SEMIMAJOR_AXIS":"6925.349","BSTAR":"0.00004082400000","OBJECT_NAME":"STARLINK-1735","DECAY_DATE":null,"TIME_SYSTEM":"UTC","MEAN_ELEMENT_THEORY":"SGP4","RCS_SIZE":"LARGE","RA_OF_ASC_NODE":"110.3804","MEAN_ANOMALY":"277.6647","CLASSIFICATION_TYPE":"U","INCLINATION":"53.0557","LAUNCH_DATE":"2020-10-06","PERIOD":"95.592","OBJECT_TYPE":"PAYLOAD","FILE":"3573088","TLE_LINE2":"2 46565  53.0557 110.3804 0001500  82.4512 277.6647 15.06399749107941","MEAN_MOTION_DDOT":"0.0000000000000","EPOCH":"2022-09-13T21:43:07.813056","CENTER_NAME":"EARTH","EPHEMERIS_TYPE":"0","GP_ID":"212533308","OBJECT_ID":"2020-070AK","TLE_LINE1":"1 46565U 20070AK  22256.90495154  .00000327  00000-0  40824-4 0  9993","SITE":"AFETR","NORAD_CAT_ID":"46565","APOAPSIS":"548.253","MEAN_MOTION_DOT":"0.00000327","COUNTRY_CODE":"US"},{"TLE_LINE2":"2 46566  53.0554 110.4352 0001360  77.8820 282.2322 15.06391772107942","CENTER_NAME":"EARTH","MEAN_MOTION_DDOT":"0.0000000000000","EPOCH":"2022-09-13T21:21:54.067104","GP_ID":"212533055","EPHEMERIS_TYPE":"0","OBJECT_ID":"2020-070AL","TLE_LINE1":"1 46566U 20070AL  22256.89020911  .00000308  00000-0  39572-4 0  9994","SITE":"AFETR","APOAPSIS":"548.181","MEAN_MOTION_DOT":"0.00000308","NORAD_CAT_ID":"46566","COUNTRY_CODE":"US","PERIAPSIS":"546.297","REV_AT_EPOCH":"10794","ELEMENT_SET_NO":"999","ECCENTRICITY":"0.00013600","ARG_OF_PERICENTER":"77.8820","TIME_SYSTEM":"UTC","DECAY_DATE":null,"SEMIMAJOR_AXIS":"6925.374","OBJECT_NAME":"STARLINK-1740","BSTAR":"0.00003957200000","REF_FRAME":"TEME","MEAN_MOTION":"15.06391772","MEAN_ELEMENT_THEORY":"SGP4","RCS_SIZE":"LARGE","RA_OF_ASC_NODE":"110.4352","CLASSIFICATION_TYPE":"U","MEAN_ANOMALY":"282.2322","LAUNCH_DATE":"2020-10-06","INCLINATION":"53.0554","FILE":"3573088","OBJECT_TYPE":"PAYLOAD","PERIOD":"95.593"},{"MEAN_ANOMALY":"269.8939","CLASSIFICATION_TYPE":"U","RA_OF_ASC_NODE":"110.5936","PERIOD":"95.592","FILE":"3573088","OBJECT_TYPE":"PAYLOAD","INCLINATION":"53.0560","LAUNCH_DATE":"2020-10-06","MEAN_MOTION":"15.06395498","SEMIMAJOR_AXIS":"6925.362","REF_FRAME":"TEME","BSTAR":"0.00003444200000","OBJECT_NAME":"STARLINK-1741","TIME_SYSTEM":"UTC","DECAY_DATE":null,"ELEMENT_SET_NO":"999","ECCENTRICITY":"0.00014010","ARG_OF_PERICENTER":"90.2210","REV_AT_EPOCH":"10794","PERIAPSIS":"546.257","RCS_SIZE":"LARGE","MEAN_ELEMENT_THEORY":"SGP4","TLE_LINE1":"1 46567U 20070AM  22256.85335583  .00000232  00000-0  34442-4 0  9992","SITE":"AFETR","OBJECT_ID":"2020-070AM","COUNTRY_CODE":"US","NORAD_CAT_ID":"46567","MEAN_MOTION_DOT":"0.00000232","APOAPSIS":"548.198","TLE_LINE2":"2 46567  53.0560 110.5936 0001401  90.2210 269.8939 15.06395498107941","EPHEMERIS_TYPE":"0","GP_ID":"212531808","MEAN_MOTION_DDOT":"0.0000000000000","EPOCH":"2022-09-13T20:28:49.943712","CENTER_NAME":"EARTH"}];
